[{"OBJECT_NAME":"NETSAT-2","OBJECT_ID":"2020-068X","EPOCH":"2026-03-09T22:24:39.507840","MEAN_MOTION":15.41593314,"ECCENTRICITY":0.00044399,"INCLINATION":97.8659,"RA_OF_ASC_NODE":69.0583,"ARG_OF_PERICENTER":21.2445,"MEAN_ANOMALY":338.8984,"EPHEMERIS_TYPE":0,"CLASSIFICATION_TYPE":"U","NORAD_CAT_ID":46507,"ELEMENT_SET_NO":999,"REV_AT_EPOCH":30042,"BSTAR":0.00064543032,"MEAN_MOTION_DOT":0.00027118,"MEAN_MOTION_DDOT":0},{"OBJECT_NAME":"DELTA 2 R\/B(1)","OBJECT_ID":"1990-008B","EPOCH":"2026-03-09T08:59:25.462464","MEAN_MOTION":15.55957726,"ECCENTRICITY":0.00854397,"INCLINATION":35.6039,"RA_OF_ASC_NODE":176.922,"ARG_OF_PERICENTER":255.8292,"MEAN_ANOMALY":103.2939,"EPHEMERIS_TYPE":0,"CLASSIFICATION_TYPE":"U","NORAD_CAT_ID":20453,"ELEMENT_SET_NO":999,"REV_AT_EPOCH":92608,"BSTAR":0.00075711194,"MEAN_MOTION_DOT":0.00064698,"MEAN_MOTION_DDOT":0}]
